{
  "last_updated": "2026-06-13T06:00:04.039685",
  "satellites": {
    "98592": {
      "name": "DUTHSat-2",
      "norad_id": "98592",
      "tle": "1 64530U 25135C   26163.80434696  .00013939  00000-0  53104-3 0  9993\n2 64530  97.4615 279.7166 0004836 190.0117 170.1026 15.26819842 54260",
      "epoch": "2026-06-12T19:18:15.577344",
      "fetched_at": "2026-06-13T06:00:04.214917",
      "source": "satnogs"
    },
    "98530": {
      "name": "LAMARR",
      "norad_id": "98530",
      "tle": "1 66673U 25276H   26026.90917087  .00034524  00000-0  16680-2 0  9998\n2 66673  97.4301 102.8338 0007597 141.5941 218.5835 15.18529012  8972",
      "epoch": "2026-01-26T21:49:12.363168",
      "fetched_at": "2026-01-28T06:00:02.884758",
      "source": "satnogs",
      "note": "Using previous TLE (fetch/manual failed today)"
    },
    "98529": {
      "name": "DIRAC",
      "norad_id": "98529",
      "tle": "1 66681U 25276R   26026.63281774  .00024563  00000-0  11745-2 0  9993\n2 66681  97.4280 102.5712 0006320 148.4115 211.7500 15.18972786  8932",
      "epoch": "2026-01-26T15:11:15.452736",
      "fetched_at": "2026-01-28T06:00:02.937152",
      "source": "satnogs",
      "note": "Using previous TLE (fetch/manual failed today)"
    },
    "98518": {
      "name": "MICE-1",
      "norad_id": "98518",
      "tle": "1 66684U 25276U   26163.17334185  .00004098  00000-0  19812-3 0  9997\n2 66684  97.4274 236.8848 0005847  28.1486 332.0063 15.19158752 29650",
      "epoch": "2026-06-12T04:09:36.735840",
      "fetched_at": "2026-06-13T06:00:04.432088",
      "source": "satnogs"
    },
    "68416": {
      "name": "PeakSat",
      "norad_id": "68416",
      "tle": "1 68416U 26067A   26163.81122963  .00007024  00000-0  33466-3 0  9994\n2 68416  97.4540 122.4444 0000558   3.7507 356.3731 15.19431458 11288",
      "epoch": "2026-06-12T19:28:10.240032",
      "fetched_at": "2026-06-13T06:00:04.499998",
      "source": "satnogs"
    },
    "98370": {
      "name": "OptiSat",
      "norad_id": "98370",
      "tle": "1 69696U 69696    26089.46895426  .00000000  00000-0  00000-0 0 00004\n2 69696 097.4414 038.3720 0003145 156.7651 191.1423 15.18459822000011",
      "epoch": "2026-03-30T11:15:17.648064",
      "fetched_at": "2026-04-17T12:47:18.541523",
      "source": "manual"
    },
    "68468": {
      "name": "ERMIS-1",
      "norad_id": "68468",
      "tle": "1 68468U 26067BE  26163.83907205  .00009626  00000-0  48103-3 0  9997\n2 68468  97.4541 122.2667 0008911  76.7498 283.4729 15.17632073 11271",
      "epoch": "2026-06-12T20:08:15.825120",
      "fetched_at": "2026-06-13T06:00:04.570093",
      "source": "satnogs"
    },
    "68420": {
      "name": "ERMIS-2",
      "norad_id": "68420",
      "tle": "1 68420U 26067E   26163.87451458  .00010138  00000-0  47784-3 0  9997\n2 68420  97.4472 122.4542 0001000  99.9017 260.2331 15.19690734 11296",
      "epoch": "2026-06-12T20:59:18.059712",
      "fetched_at": "2026-06-13T06:00:04.638793",
      "source": "satnogs"
    },
    "98367": {
      "name": "ERMIS-3",
      "norad_id": "98367",
      "tle": "1 68425U 26067K   26162.85032111  .00004620  00000-0  22574-3 0  9999\n2 68425  97.4579 121.4741 0002274  48.5729 311.5701 15.18734268 11137",
      "epoch": "2026-06-11T20:24:27.743904",
      "fetched_at": "2026-06-13T06:00:04.703701",
      "source": "satnogs"
    },
    "69021": {
      "name": "Helios",
      "norad_id": "69021",
      "tle": "1 69021U 26100AT  26163.23585927  .00007238  00000-0  33944-3 0  9992\n2 69021  97.4039  61.1011 0005243  27.9925 332.1591 15.19953787  6050",
      "epoch": "2026-06-12T05:39:38.240928",
      "fetched_at": "2026-06-13T06:00:04.769433",
      "source": "satnogs"
    },
    "69020": {
      "name": "Selene",
      "norad_id": "69020",
      "tle": "1 69020U 26100AS  26163.30439296  .00005869  00000-0  27700-3 0  9997\n2 69020  97.4054  61.1733 0004527  24.1570 335.9876 15.19819503  6061",
      "epoch": "2026-06-12T07:18:19.551744",
      "fetched_at": "2026-06-13T06:00:04.829939",
      "source": "satnogs"
    }
  },
  "fetch_log": []
}